0 DELTA 1 DEB
1 07979U 72058DA  13282.49963118  .00000509  00000-0  34779-3 0  4252
2 07979 097.8709 001.1672 0415142 166.9461 264.6146 13.67969539907318
0 DELTA 1 DEB
1 07979U 72058DA  13286.82915027  .00000580  00000-0  39318-3 0  4274
2 07979 097.8709 004.7114 0415294 155.2263 346.1520 13.67973458907909
0 DELTA 1 DEB
1 07979U 72058DA  13289.15401715  .00000623  00000-0  42037-3 0  4288
2 07979 097.8704 006.6146 0415347 148.9349 275.4292 13.67978599908220
0 DELTA 1 DEB
1 07979U 72058DA  13291.19568448  .00000569  00000-0  38577-3 0  4296
2 07979 097.8699 008.2858 0415379 143.4155 250.0578 13.67981079908505
0 DELTA 1 DEB
1 07979U 72058DA  13293.47024429  .00000613  00000-0  41365-3 0  4306
2 07979 097.8695 010.1473 0415458 137.2585 291.6483 13.67983803908819
0 DELTA 1 DEB
1 07979U 72058DA  13295.74736367  .00000593  00000-0  40032-3 0  4317
2 07979 097.8695 012.0107 0415513 131.0961 345.8655 13.67986850909129
